NORAD_CAT_ID,OBJECT_NAME,OBJECT_TYPE,EPOCH,MEAN_MOTION,ECCENTRICITY,INCLINATION,RA_OF_ASC_NODE,ARG_OF_PERICENTER,MEAN_ANOMALY,BSTAR,MEAN_MOTION_DOT,MEAN_MOTION_DDOT,TLE_LINE0,TLE_LINE1,TLE_LINE2,SEMIMAJOR_AXIS,PERIOD,APOGEE,PERIGEE,DECAYED
55293.0,STARLINK-5287,PAYLOAD,2023-07-25 12:16:11,14.98325683,0.0003267,70.0004,280.352,276.4409,83.6378,-4.5901e-05,-6.41e-06,0.0,0 STARLINK-5287,1 55293U 23010AA  23206.51123887 -.00000641  00000-0 -45901-4 0  9994,2 55293  70.0004 280.3520 0003267 276.4409  83.6378 14.98325683 29743,6950.206,96.107,574.342,569.801,0.0
55293.0,STARLINK-5287,PAYLOAD,2023-07-26 07:29:47,14.98326236,0.0003574,69.999,278.3323,270.8236,89.2514,6.6581e-05,7.01e-06,0.0,0 STARLINK-5287,1 55293U 23010AA  23207.31235181  .00000701  00000-0  66581-4 0  9996,2 55293  69.9990 278.3323 0003574 270.8236  89.2514 14.98326236 29861,6950.205,96.107,574.554,569.586,0.0
55293.0,STARLINK-5287,PAYLOAD,2023-07-26 17:06:35,14.9833322,0.0003493,69.9991,277.3216,271.9115,88.1644,0.00012906,1.447e-05,0.0,0 STARLINK-5287,1 55293U 23010AA  23207.71290596  .00001447  00000-0  12906-3 0  9990,2 55293  69.9991 277.3216 0003493 271.9115  88.1644 14.98333220 29627,6950.183,96.107,574.476,569.62,0.0
55293.0,STARLINK-5287,PAYLOAD,2023-07-26 21:54:59,14.98325755,0.0003512,69.9981,276.8166,270.1547,89.921,4.6975e-05,4.67e-06,0.0,0 STARLINK-5287,1 55293U 23010AA  23207.91319255  .00000467  00000-0  46975-4 0  9991,2 55293  69.9981 276.8166 0003512 270.1547  89.9210 14.98325755 29651,6950.206,96.107,574.512,569.63,0.0
55293.0,STARLINK-5287,PAYLOAD,2023-07-27 13:56:20,14.98323996,0.0003477,69.9991,275.1345,272.4538,87.6223,-1.3196e-05,-2.51e-06,0.0,0 STARLINK-5287,1 55293U 23010AA  23208.58079707 -.00000251  00000-0 -13196-4 0  9992,2 55293  69.9991 275.1345 0003477 272.4538  87.6223 14.98323996 30058,6950.211,96.107,574.493,569.66,0.0
55293.0,STARLINK-5287,PAYLOAD,2023-07-27 17:08:36,14.98329831,0.0003593,69.9988,274.7977,271.2468,88.8279,2.1127e-05,1.59e-06,0.0,0 STARLINK-5287,1 55293U 23010AA  23208.71431235  .00000159  00000-0  21127-4 0  9993,2 55293  69.9988 274.7977 0003593 271.2468  88.8279 14.98329831 30078,6950.193,96.107,574.556,569.561,0.0
55293.0,STARLINK-5287,PAYLOAD,2023-07-27 21:57:00,14.98329623,0.0003596,69.9988,274.2926,268.0053,92.0694,2.3797e-05,1.91e-06,0.0,0 STARLINK-5287,1 55293U 23010AA  23208.91459199  .00000191  00000-0  23797-4 0  9995,2 55293  69.9988 274.2926 0003596 268.0053  92.0694 14.98329623 29800,6950.194,96.107,574.558,569.56,0.0
55293.0,STARLINK-5287,PAYLOAD,2023-07-28 05:57:41,14.9832499,0.0003576,69.9986,273.4503,270.1885,89.8864,-0.0001124,-1.434e-05,0.0,0 STARLINK-5287,1 55293U 23010AA  23209.24840016 -.00001434  00000-0 -11240-3 0  9996,2 55293  69.9986 273.4503 0003576 270.1885  89.8864 14.98324990 29855,6950.208,96.107,574.559,569.588,0.0
55293.0,STARLINK-5287,PAYLOAD,2023-07-28 07:33:49,14.98324358,0.0003558,69.9987,273.2819,269.9343,90.1408,-0.00010421,-1.336e-05,0.0,0 STARLINK-5287,1 55293U 23010AA  23209.31516044 -.00001336  00000-0 -10421-3 0  9996,2 55293  69.9987 273.2819 0003558 269.9343  90.1408 14.98324358 30162,6950.21,96.107,574.548,569.602,0.0
55293.0,STARLINK-5287,PAYLOAD,2023-07-29 02:47:25,14.9833069,0.0003534,69.9984,271.2614,269.6143,90.4611,4.721e-05,4.7e-06,0.0,0 STARLINK-5287,1 55293U 23010AA  23210.11627254  .00000470  00000-0  47210-4 0  9995,2 55293  69.9984 271.2614 0003534 269.6143  90.4611 14.98330690 29982,6950.191,96.107,574.512,569.6,0.0
55293.0,STARLINK-5287,PAYLOAD,2023-07-30 10:50:06,14.98341012,0.0003448,69.9984,267.8951,270.9718,89.1046,0.00017125,1.951e-05,0.0,0 STARLINK-5287,1 55293U 23010AA  23211.45146103  .00001951  00000-0  17125-3 0  9998,2 55293  69.9984 267.8951 0003448 270.9718  89.1046 14.98341012 30185,6950.159,96.106,574.42,569.627,0.0
55293.0,STARLINK-5287,PAYLOAD,2023-07-31 02:51:27,14.9833343,0.0003344,70.0026,266.2149,268.0182,92.0594,-2.6017e-05,-4.03e-06,0.0,0 STARLINK-5287,1 55293U 23010AA  23212.11906779 -.00000403  00000-0 -26017-4 0  9999,2 55293  70.0026 266.2149 0003344 268.0182  92.0594 14.98333430 30282,6950.182,96.107,574.371,569.723,0.0
55293.0,STARLINK-5287,PAYLOAD,2023-07-31 10:52:08,14.98326605,0.0003188,69.9994,265.3715,267.8925,92.1869,-9.8675e-05,-1.27e-05,0.0,0 STARLINK-5287,1 55293U 23010AA  23212.45287388 -.00001270  00000-0 -98675-4 0  9996,2 55293  69.9994 265.3715 0003188 267.8925  92.1869 14.98326605 30338,6950.203,96.107,574.284,569.853,0.0
55293.0,STARLINK-5287,PAYLOAD,2023-08-01 12:30:17,14.98332643,0.000326,69.9989,262.6781,269.9394,90.1392,-0.00012914,-1.634e-05,0.0,0 STARLINK-5287,1 55293U 23010AA  23213.52103064 -.00001634  00000-0 -12914-3 0  9998,2 55293  69.9989 262.6781 0003260 269.9394  90.1392 14.98332643 30494,6950.185,96.107,574.315,569.784,0.0
55293.0,STARLINK-5287,PAYLOAD,2023-08-02 12:32:18,14.98324588,0.0003535,69.9982,260.1519,272.9964,87.079,3.5545e-05,3.31e-06,0.0,0 STARLINK-5287,1 55293U 23010AA  23214.52243172  .00000331  00000-0  35545-4 0  9991,2 55293  69.9982 260.1519 0003535 272.9964  87.0790 14.98324588 30644,6950.21,96.107,574.532,569.618,0.0
55293.0,STARLINK-5287,PAYLOAD,2023-08-03 12:34:18,14.98331097,0.0003589,69.9981,257.6275,273.5019,86.5729,4.03e-05,3.88e-06,0.0,0 STARLINK-5287,1 55293U 23010AA  23215.52382834  .00000388  00000-0  40300-4 0  9998,2 55293  69.9981 257.6275 0003589 273.5019  86.5729 14.98331097 30795,6950.189,96.107,574.549,569.56,0.0
55293.0,STARLINK-5287,PAYLOAD,2023-08-04 02:59:31,14.98325974,0.0003582,69.998,256.1125,273.3292,86.7457,-2.1342e-05,-3.48e-06,0.0,0 STARLINK-5287,1 55293U 23010AA  23216.12467376 -.00000348  00000-0 -21342-4 0  9993,2 55293  69.9980 256.1125 0003582 273.3292  86.7457 14.98325974 30883,6950.205,96.107,574.56,569.581,0.0
55293.0,STARLINK-5287,PAYLOAD,2023-08-05 03:01:32,14.98333683,0.0003627,69.9982,253.5886,274.4302,85.6442,1.8357e-05,1.26e-06,0.0,0 STARLINK-5287,1 55293U 23010AA  23217.12606844  .00000126  00000-0  18357-4 0  9993,2 55293  69.9982 253.5886 0003627 274.4302  85.6442 14.98333683 31030,6950.182,96.107,574.567,569.526,0.0
55293.0,STARLINK-5287,PAYLOAD,2023-08-06 04:39:41,14.98329604,0.000351,69.9983,250.8942,267.1956,92.8801,3.1302e-05,2.8e-06,0.0,0 STARLINK-5287,1 55293U 23010AA  23218.19422754  .00000280  00000-0  31302-4 0  9993,2 55293  69.9983 250.8942 0003510 267.1956  92.8801 14.98329604 31193,6950.194,96.107,574.499,569.62,0.0
55293.0,STARLINK-5287,PAYLOAD,2023-08-07 09:30:06,14.98329258,0.0003433,69.9982,247.8639,264.5406,95.5361,-5.674e-05,-7.7e-06,0.0,0 STARLINK-5287,1 55293U 23010AA  23219.39590976 -.00000770  00000-0 -56740-4 0  9997,2 55293  69.9982 247.8639 0003433 264.5406  95.5361 14.98329258 31372,6950.195,96.107,574.446,569.674,0.0
55293.0,STARLINK-5287,PAYLOAD,2023-08-07 19:06:55,14.98313365,0.0003554,69.9983,246.854,268.8075,91.2677,0.00025377,2.935e-05,0.0,0 STARLINK-5287,1 55293U 23010AA  23219.79647374  .00002935  00000-0  25377-3 0  9990,2 55293  69.9983 246.8540 0003554 268.8075  91.2677 14.98313365 31438,6950.244,96.108,574.579,569.639,0.0
55293.0,STARLINK-5287,PAYLOAD,2023-08-08 01:31:27,14.98327729,0.0003595,69.9986,246.1806,268.4091,91.6656,8.5809e-06,9e-08,0.0,0 STARLINK-5287,1 55293U 23010AA  23220.06350852  .00000009  00000-0  85809-5 0  9992,2 55293  69.9986 246.1806 0003595 268.4091  91.6656 14.98327729 31472,6950.2,96.107,574.564,569.566,0.0
55293.0,STARLINK-5287,PAYLOAD,2023-08-09 09:34:08,14.98325501,0.0003553,69.9983,242.8135,266.4801,93.5952,-7.0265e-06,-1.77e-06,0.0,0 STARLINK-5287,1 55293U 23010AA  23221.39871097 -.00000177  00000-0 -70265-5 0  9996,2 55293  69.9983 242.8135 0003553 266.4801  93.5952 14.98325501 31676,6950.207,96.107,574.541,569.602,0.0
55293.0,STARLINK-5287,PAYLOAD,2023-08-10 09:36:09,14.98330552,0.0003457,69.9979,240.2884,267.5765,92.4999,3.5809e-05,3.34e-06,0.0,0 STARLINK-5287,1 55293U 23010AA  23222.40010676  .00000334  00000-0  35809-4 0  9994,2 55293  69.9979 240.2884 0003457 267.5765  92.4999 14.98330552 31826,6950.191,96.107,574.459,569.654,0.0
55293.0,STARLINK-5287,PAYLOAD,2023-08-11 09:38:09,14.98332969,0.0003786,69.9979,237.7634,268.2511,91.8214,1.3547e-05,6.9e-07,0.0,0 STARLINK-5287,1 55293U 23010AA  23223.40150434  .00000069  00000-0  13547-4 0  9992,2 55293  69.9979 237.7634 0003786 268.2511  91.8214 14.98332969 31975,6950.184,96.107,574.68,569.417,0.0
55293.0,STARLINK-5287,PAYLOAD,2023-08-12 09:40:11,14.98330017,0.0003704,69.9982,235.2389,268.1287,91.9448,-2.0652e-05,-3.4e-06,0.0,0 STARLINK-5287,1 55293U 23010AA  23224.40290590 -.00000340  00000-0 -20652-4 0  9990,2 55293  69.9982 235.2389 0003704 268.1287  91.9448 14.98330017 32128,6950.193,96.107,574.632,569.483,0.0
55293.0,STARLINK-5287,PAYLOAD,2023-08-13 17:42:52,14.98329768,0.0003741,69.998,231.8717,269.2448,90.8283,-1.7914e-05,-3.07e-06,0.0,0 STARLINK-5287,1 55293U 23010AA  23225.73810478 -.00000307  00000-0 -17914-4 0  9990,2 55293  69.9980 231.8717 0003741 269.2448  90.8283 14.98329768 32323,6950.194,96.107,574.659,569.459,0.0
55293.0,STARLINK-5287,PAYLOAD,2023-08-14 17:44:53,14.98329462,0.0003782,69.9982,229.3465,268.6987,91.3739,1.5202e-06,-7.5e-07,0.0,0 STARLINK-5287,1 55293U 23010AA  23226.73950442 -.00000075  00000-0  15202-5 0  9997,2 55293  69.9982 229.3465 0003782 268.6987  91.3739 14.98329462 32472,6950.195,96.107,574.688,569.431,0.0
55293.0,STARLINK-5287,PAYLOAD,2023-08-15 17:46:54,14.98329015,0.0003794,69.9984,226.8216,268.6689,91.4035,6.5857e-07,-8.5e-07,0.0,0 STARLINK-5287,1 55293U 23010AA  23227.74090420 -.00000085  00000-0  65857-6 0  9993,2 55293  69.9984 226.8216 0003794 268.6689  91.4035 14.98329015 32623,6950.196,96.107,574.698,569.424,0.0
55293.0,STARLINK-5287,PAYLOAD,2023-08-17 09:50:16,14.98325006,0.0003801,69.9986,222.6138,268.6927,91.3796,-6.7957e-05,-9.04e-06,0.0,0 STARLINK-5287,1 55293U 23010AA  23229.40990886 -.00000904  00000-0 -67957-4 0  9995,2 55293  69.9986 222.6138 0003801 268.6927  91.3796 14.98325006 32872,6950.208,96.107,574.715,569.432,0.0
